GALAXY 11 (G-11)        
1 26038U 99071A   25044.59217733 -.00000290  00000+0  00000+0 0  9997
2 26038   5.4993  76.4577 0009089 295.9463 132.2935  0.99031031 92171
INTELSAT 9 (IS-9)       
1 26451U 00043A   25044.55513012 -.00000018  00000+0  00000+0 0  9990
2 26451   9.3128  53.5951 0003091 282.2709  74.0359  1.00272866 39231
INTELSAT 10 (IS-10)     
1 26766U 01019A   25044.55513012 -.00000013  00000+0  00000+0 0  9998
2 26766   7.9035  64.2411 0004053 257.3134  88.1951  1.00272273 40716
INTELSAT 901 (IS-901)   
1 26824U 01024A   25044.01155773 -.00000210  00000+0  00000+0 0  9995
2 26824   0.0259 107.3442 0002532 246.1964 126.3927  1.00270718 18088
INTELSAT 902 (IS-902)   
1 26900U 01039A   25044.53201993 -.00000289  00000+0  00000+0 0  9995
2 26900   4.8771  77.7530 0004561 249.1893 318.2767  1.00271908 85798
INTELSAT 904 (IS-904)   
1 27380U 02007A   25044.39323684 -.00000221  00000+0  00000+0 0  9996
2 27380   5.6914  75.0307 0003333 255.2038 285.4787  1.00271747 46860
DIRECTV 5 (TEMPO 1)     
1 27426U 02023A   25044.57532512 -.00000062  00000+0  00000+0 0  9990
2 27426   3.6239  81.4509 0003578 254.9906 264.3792  1.00271763 83226
INTELSAT 905 (IS-905)   
1 27438U 02027A   25042.38725436 -.00000197  00000+0  00000+0 0  9992
2 27438   5.5133  75.6906 0003014 259.5229 281.3728  1.00271028 46448
GALAXY 3C (G-3C)        
1 27445U 02030A   25044.54170675 -.00000158  00000+0  00000+0 0  9990
2 27445   2.4748  84.3576 0002567  55.2836 104.2978  1.00271385 41598
INTELSAT 906 (IS-906)   
1 27513U 02041A   25044.55469572  .00000007  00000+0  00000+0 0  9998
2 27513   4.5555  78.9583 0004442 216.2562 112.4345  1.00272721 82127
GALAXY 23 (G-23)        
1 27854U 03034A   25044.63228832  .00000006  00000+0  00000+0 0  9999
2 27854   1.9314  85.8804 0002807 248.8512 275.8842  1.00271876 78841
GALAXY 13 (HORIZONS-1)  
1 27954U 03044A   25044.60500529  .00000127  00000+0  00000+0 0  9998
2 27954   0.1519  94.9431 0002129 238.5253 238.1826  1.00273235 41678
INTELSAT 10-02          
1 28358U 04022A   25044.42544700 -.00000018  00000+0  00000+0 0  9993
2 28358   0.0472 280.1695 0000559  79.2672 296.4144  1.00269873 75653
XM-3 (RHYTHM)           
1 28626U 05008A   25044.52477377 -.00000203  00000+0  00000+0 0  9998
2 28626   0.0693 255.0548 0002259  36.3814 314.8844  1.00253986 37721
DIRECTV 8               
1 28659U 05019A   25044.63375418 -.00000004  00000+0  00000+0 0  9990
2 28659   0.0235 120.6591 0003129 212.7390 279.6083  1.00269813 72177
GALAXY 28 (G-28)        
1 28702U 05022A   25044.52425249 -.00000191  00000+0  00000+0 0  9996
2 28702   2.0359  85.0757 0005552 210.3512 308.0673  1.00271446 47084
SPACEWAY 2              
1 28903U 05046B   25044.61908507  .00000061  00000+0  00000+0 0  9993
2 28903   4.2169  77.4242 0001550  37.2365 117.2143  0.99061435 46432
GALAXY 16 (G-16)        
1 29236U 06023A   25044.56044963 -.00000133  00000+0  00000+0 0  9991
2 29236   0.0633 259.7431 0002983  68.2519 278.5619  1.00272594 68079
DIRECTV 9S              
1 29494U 06043A   25044.52181983 -.00000119  00000+0  00000+0 0  9993
2 29494   1.1560  86.9638 0003264 245.2141 258.2367  1.00272402 46480
GALAXY 17 (G-17)        
1 31307U 07016B   25044.50524672 -.00000212  00000+0  00000+0 0  9998
2 31307   1.7307  86.2287 0005049 219.5660 294.8508  1.00272140 64906
DIRECTV 10              
1 31862U 07032A   25044.52149804 -.00000109  00000+0  00000+0 0  9999
2 31862   0.0026   5.6005 0000373 330.3501 252.7612  1.00270822 40690
INTELSAT 11 (IS-11)     
1 32253U 07044B   25044.46195924 -.00000275  00000+0  00000+0 0  9998
2 32253   2.2899  84.7796 0003278 243.7380 298.5027  1.00272105 63599
HORIZONS-2              
1 32388U 07063B   25044.52729330 -.00000260  00000+0  00000+0 0  9993
2 32388   1.3376  86.8017 0002230 250.8706 282.1228  1.00273205 62914
DIRECTV 11              
1 32729U 08013A   25044.56044980 -.00000132  00000+0  00000+0 0  9991
2 32729   0.0459 297.1716 0000681  31.5326 277.6677  1.00273935 40692
GALAXY 18 (G-18)        
1 32951U 08024A   25044.62983725  .00000019  00000+0  00000+0 0  9999
2 32951   0.0130  99.4062 0003335 237.8052 270.3934  1.00272540 40954
INTELSAT 25 (IS-25)     
1 33153U 08034A   25044.46421812 -.00000231  00000+0  00000+0 0  9998
2 33153   1.4442  86.4585 0003194 242.8903 309.9812  1.00271487 60797
GALAXY 19 (G-19)        
1 33376U 08045A   25044.58367403 -.00000145  00000+0  00000+0 0  9999
2 33376   0.0635 273.6320 0003109  54.1266 289.1908  1.00272005 59938
FM-5                    
1 35493U 09034A   25044.52486065 -.00000206  00000+0  00000+0 0  9998
2 35493   0.0079 149.7153 0002332  34.2852  62.5664  1.00270116 41749
INTELSAT 14 (IS-14)     
1 36097U 09064A   25044.46152484 -.00000280  00000+0  00000+0 0  9992
2 36097   0.0165 110.3341 0002331 226.0322 288.4946  1.00263200 55700
INTELSAT 15 (IS-15)     
1 36106U 09067A   25044.48741520 -.00000193  00000+0  00000+0 0  9996
2 36106   0.0151  98.7008 0002348 230.6477  75.0113  1.00276489 36321
DIRECTV 12              
1 36131U 09075A   25044.52149847 -.00000110  00000+0  00000+0 0  9991
2 36131   0.0054 266.6969 0000538 114.2739 207.8232  1.00273625 41658
INTELSAT 16 (IS-16)     
1 36397U 10006A   25044.52677201 -.00000251  00000+0  00000+0 0  9997
2 36397   0.0230 108.7540 0002136 216.1352 292.3584  1.00269449 54751
XM-5                    
1 37185U 10053A   25044.52400034 -.00000030  00000+0  00000+0 0  9998
2 37185   0.0201 120.7918 0000557  64.6105  31.8347  1.00273848 52585
INTELSAT 17 (IS-17)     
1 37238U 10065B   25044.55504324 -.00000008  00000+0  00000+0 0  9995
2 37238   0.0147 119.0538 0002479 211.8453  78.7223  1.00270868 48340
INTELSAT 28 (IS-28)     
1 37392U 11016A   25044.44211725 -.00000051  00000+0  00000+0 0  9999
2 37392   0.5394  89.3953 0004235 230.7368 340.4539  1.00145840 48381
INTELSAT 18 (IS-18)     
1 37834U 11056A   25044.62320603  .00000046  00000+0  00000+0 0  9993
2 37834   0.0203 128.4957 0001723 232.8340 186.9245  1.00268924 48912
INTELSAT 22 (IS-22)     
1 38098U 12011A   25044.55625956 -.00000065  00000+0  00000+0 0  9991
2 38098   0.0192  91.2112 0001860 248.0554  76.8868  1.00271685  2286
INTELSAT 19 (IS-19)     
1 38356U 12030A   25044.60814409 -.00000063  00000+0  00000+0 0  9996
2 38356   0.0135 101.1851 0003483 232.5098 195.0941  1.00272423 45548
INTELSAT 20 (IS-20)     
1 38740U 12043A   25044.55556453 -.00000031  00000+0  00000+0 0  9998
2 38740   0.0212 113.0026 0002296  68.0824 231.2195  1.00272370 45845
INTELSAT 21 (IS-21)     
1 38749U 12045A   25044.53045609 -.00000291  00000+0  00000+0 0  9991
2 38749   0.0556 272.4048 0002068  69.1993 295.1499  1.00272092 45628
INTELSAT 23 (IS-23)     
1 38867U 12057A   25044.45996098 -.00000291  00000+0  00000+0 0  9993
2 38867   0.0265 174.0647 0001493 234.2154 207.9796  1.00265759 45042
FM-6                    
1 39360U 13058A   25044.52309608 -.00000023  00000+0  00000+0 0  9990
2 39360   0.0089  42.5509 0000422 170.1725   3.2026  1.00272262 41163
INTELSAT 30 (IS-30)     
1 40271U 14062A   25044.54170766 -.00000157  00000+0  00000+0 0  9990
2 40271   0.0154  72.7191 0000815 288.1582 242.8607  1.00270181  1887
DIRECTV 14              
1 40333U 14078B   25044.56044916 -.00000131  00000+0  00000+0 0  9997
2 40333   0.0070  56.0436 0000462 168.0678  22.2312  1.00272277 37150
DIRECTV 15              
1 40663U 15026A   25044.52149832 -.00000108  00000+0  00000+0 0  9990
2 40663   0.0253  95.1436 0000088 318.7912 174.6908  1.00269044 35566
SKY MEXICO-1            
1 40664U 15026B   25044.47058693 -.00000241  00000+0  00000+0 0  9997
2 40664   0.0263  36.0298 0002459 304.5313 253.7888  1.00270559 35558
INTELSAT 34 (IS-34)     
1 40874U 15039A   25044.45952659 -.00000292  00000+0  00000+0 0  9993
2 40874   0.0179  95.1816 0000407 139.8543  18.5989  1.00270102 34725
INTELSAT 31 (IS-31)     
1 41581U 16035A   25044.53738146 -.00000156  00000+0  00000+0 0  9997
2 41581   0.0114 121.7344 0001835  65.7199  54.7105  1.00270309 31786
INTELSAT 36 (IS-36)     
1 41747U 16053A   25044.48411374 -.00000031  00000+0  00000+0 0  9998
2 41747   0.0125  68.7212 0001342 257.2668  60.5090  1.00270990 31041
INTELSAT 32E (IS-32E)   
1 41945U 17007B   25044.46195924 -.00000276  00000+0  00000+0 0  9997
2 41945   0.0120 101.2450 0000310 266.5391 259.0426  1.00269969 29323
INTELSAT 35E (IS-35E)   
1 42818U 17041A   25044.46369685 -.00000245  00000+0  00000+0 0  9998
2 42818   0.0481 264.4322 0002821  66.7308 304.9830  1.00271836 27918
INTELSAT 37E (IS-37E)   
1 42950U 17059A   25044.42063457 -.00000148  00000+0  00000+0 0  9990
2 42950   0.0126  96.4757 0002507 216.2015 324.4023  1.00271354 27167
AZERSPACE 2 (IS-38)     
1 43632U 18074A   25044.19367260  .00000129  00000+0  00000+0 0  9997
2 43632   0.0266 108.2621 0001392 229.6448 280.3895  1.00269965 23541
HORIZONS-3E             
1 43633U 18074B   25044.47060713 -.00000038  00000+0  00000+0 0  9992
2 43633   0.0483 277.6815 0001476  14.8801 189.5668  1.00268194 23449
AT&T T-16               
1 44333U 19034A   25044.53914392 -.00000121  00000+0  00000+0 0  9998
2 44333   0.0132  98.8905 0001443  62.0771  76.0300  1.00269228 20737
INTELSAT 39 (IS-39)     
1 44476U 19049B   25044.48281053  .00000027  00000+0  00000+0 0  9991
2 44476   0.0180  99.3665 0000684  53.4097 226.6953  1.00271727 20226
GALAXY 30 (G-30)        
1 46114U 20056C   25044.62877400  .00000031  00000+0  00000+0 0  9990
2 46114   0.0225 122.9725 0001978 205.1849 277.1062  1.00269508 16394
GALAXY 33 (G-33)        
1 54026U 22128A   25044.62131962  .00000073  00000+0  00000+0 0  9995
2 54026   0.0146  94.4697 0001941 229.9645 270.1067  1.00271531  8844
GALAXY 34 (G-34)        
1 54027U 22128B   25044.62856819  .00000053  00000+0  00000+0 0  9999
2 54027   0.0136  90.0972 0001373 241.2076 269.8466  1.00271499  9017
GALAXY 31 (G-31)        
1 54243U 22153A   25044.20537017  .00000006  00000+0  00000+0 0  9995
2 54243   0.0134 119.1770 0001446 207.0497 130.1604  1.00272534  2223
GALAXY 32 (G-32)        
1 54244U 22153B   25044.47889807 -.00000180  00000+0  00000+0 0  9996
2 54244   0.0229 109.2114 0002927 233.0546 242.8971  1.00269803  8241
GALAXY 35 (G-35)        
1 54741U 22170A   25044.52914425 -.00000168  00000+0  00000+0 0  9994
2 54741   0.0140 111.6211 0002164 213.7027 275.8373  1.00273180  7998
GALAXY 36 (G-36)        
1 54742U 22170B   25044.52425249 -.00000192  00000+0  00000+0 0  9993
2 54742   0.0134 150.3077 0001913 255.5241 197.6658  1.00272716  8010
GALAXY 37 (G-37)        
1 57493U 23112A   25044.62622220  .00000042  00000+0  00000+0 0  9998
2 57493   0.0198 103.1255 0002126 227.4053 271.8067  1.00270688  5647
